FLOCK 4G-1              
1 62666U 25009BK  26068.75951132  .00013534  00000+0  50654-3 0  9995
2 62666  97.4059 151.3158 0003180 323.1401  36.9619 15.27421081 63725
STARLINK-32929          
1 63021U 25032S   26068.13819920  .00032135  00000+0  11722-2 0  9997
2 63021  43.0033 339.3401 0001609 273.9739  86.0929 15.27578336 60531
